NORAD_CAT_ID,OBJECT_NAME,OBJECT_TYPE,EPOCH,MEAN_MOTION,ECCENTRICITY,INCLINATION,RA_OF_ASC_NODE,ARG_OF_PERICENTER,MEAN_ANOMALY,BSTAR,MEAN_MOTION_DOT,MEAN_MOTION_DDOT,TLE_LINE0,TLE_LINE1,TLE_LINE2,SEMIMAJOR_AXIS,PERIOD,APOGEE,PERIGEE,DECAYED
54177.0,STARLINK-5186,PAYLOAD,2022-11-03 14:00:01,15.87885562,0.0020167,53.2174,111.8368,197.087,1.3347,-0.0046365,-0.01298941,0.00047335,0 STARLINK-5186,1 54177U 22141W   22307.58334491 -.01298941  47335-3 -46365-2 0  9992,2 54177  53.2174 111.8368 0020167 197.0870   1.3347 15.87885562  1053,6686.349,90.687,321.698,294.73,0.0
54177.0,STARLINK-5186,PAYLOAD,2022-11-03 22:00:00,15.87022494,0.0016762,53.2175,110.1541,205.4367,99.0514,-0.0049335,-0.0131682,0.00048147,0 STARLINK-5186,1 54177U 22141W   22307.91667824 -.01316820  48147-3 -49335-2 0  9997,2 54177  53.2175 110.1541 0016762 205.4367  99.0514 15.87022494  1305,6688.773,90.736,321.85,299.426,0.0
54177.0,STARLINK-5186,PAYLOAD,2022-11-04 06:00:00,15.86182428,0.0013863,53.2176,108.4691,213.496,196.0058,-0.0053606,-0.01203844,0.0,0 STARLINK-5186,1 54177U 22141W   22308.25001157 -.01203844  00000-0 -53606-2 0  9996,2 54177  53.2176 108.4691 0013863 213.4960 196.0058 15.86182428  1167,6691.134,90.784,322.275,303.723,0.0
54177.0,STARLINK-5186,PAYLOAD,2022-11-04 14:00:01,15.85289488,0.0011165,53.2176,106.7894,224.7652,288.7257,-0.0053973,-0.01160942,0.0,0 STARLINK-5186,1 54177U 22141W   22308.58334491 -.01160942  00000-0 -53973-2 0  9990,2 54177  53.2176 106.7894 0011165 224.7652 288.7257 15.85289488  1308,6693.647,90.835,322.985,308.038,0.0
54177.0,STARLINK-5186,PAYLOAD,2022-11-04 22:00:01,15.84417862,0.0009249,53.2173,105.1129,247.9826,8.5128,-0.0056091,-0.01154268,0.0,0 STARLINK-5186,1 54177U 22141W   22308.91668981 -.01154268  00000-0 -56091-2 0  9999,2 54177  53.2173 105.1129 0009249 247.9826   8.5128 15.84417862  1267,6696.101,90.885,324.16,311.773,0.0
54177.0,STARLINK-5186,PAYLOAD,2022-11-05 12:00:00,15.82907033,0.0005242,53.2173,102.1789,267.23400000000004,76.8251,-0.0061106,-0.01185272,0.0,0 STARLINK-5186,1 54177U 22141W   22309.50001157 -.01185272  00000-0 -61106-2 0  9993,2 54177  53.2173 102.1789 0005242 267.2340  76.8251 15.82907033  1369,6700.361999999999,90.972,325.7390000000001,318.714,0.0
54177.0,STARLINK-5186,PAYLOAD,2022-11-05 14:00:01,15.82716149,0.0004373,53.2174,101.7613,270.3479,188.8828,-0.0064238,-0.01228497,0.0,0 STARLINK-5186,1 54177U 22141W   22309.58335648 -.01228497  00000-0 -64238-2 0  9992,2 54177  53.2174 101.7613 0004373 270.3479 188.8828 15.82716149  1307,6700.9,90.983,325.696,319.835,0.0
54177.0,STARLINK-5186,PAYLOAD,2022-11-05 22:00:01,15.81888065,0.0001581,53.2172,100.0911,289.8582,269.1587,-0.0069656,-0.01272689,0.0,0 STARLINK-5186,1 54177U 22141W   22309.91668981 -.01272689  00000-0 -69656-2 0  9999,2 54177  53.2172 100.0911 0001581 289.8582 269.1587 15.81888065  1420,6703.239000000001,91.03,326.163,324.0440000000001,0.0
54177.0,STARLINK-5186,PAYLOAD,2022-11-06 14:00:01,15.80125316,9.05e-05,53.2174,96.7525,77.9759,317.4782,-0.0073234,-0.01236569,0.0,0 STARLINK-5186,1 54177U 22141W   22310.58334491 -.01236569  00000-0 -73234-2 0  9994,2 54177  53.2174  96.7525 0000905  77.9759 317.4782 15.80125316  1308,6708.223000000001,91.132,330.695,329.481,0.0
54177.0,STARLINK-5186,PAYLOAD,2022-11-07 22:00:00,15.7662392,0.0001262999999999,53.2171,90.1044,43.4098,12.5179,-0.0082662999999999,-0.01195644,0.0,0 STARLINK-5186,1 54177U 22141W   22311.91667824 -.01195644  00000-0 -82663-2 0  9995,2 54177  53.2171  90.1044 0001263  43.4098  12.5179 15.76623920  1741,6718.151,91.334,340.865,339.168,0.0
54177.0,STARLINK-5186,PAYLOAD,2022-11-08 12:00:00,15.75138264,0.0001361,53.2174,87.2054,52.3185,74.7944,-0.0091513,-0.01256059,0.0,0 STARLINK-5186,1 54177U 22141W   22312.50001157 -.01256059  00000-0 -91513-2 0  9994,2 54177  53.2174  87.2054 0001361  52.3185  74.7944 15.75138264  1838,6722.375,91.421,345.155,343.325,0.0
54177.0,STARLINK-5186,PAYLOAD,2022-11-08 14:00:01,15.74899724,0.0001289,53.2173,86.7926,58.5542,181.3402,-0.0090542,-0.012112,0.0,0 STARLINK-5186,1 54177U 22141W   22312.58334491 -.01211200  00000-0 -90542-2 0  9992,2 54177  53.2173  86.7926 0001289  58.5542 181.3402 15.74899724  1303,6723.054,91.434,345.785,344.052,0.0
54177.0,STARLINK-5186,PAYLOAD,2022-11-08 22:00:00,15.73886399,0.0001306,53.217,85.141,38.2056,292.1326,-0.0056981,-0.00754294,0.0,0 STARLINK-5186,1 54177U 22141W   22312.91667824 -.00754294  00000-0 -56981-2 0  9991,2 54177  53.2170  85.1410 0001306  38.2056 292.1326 15.73886399  1901,6725.939,91.493,348.682,346.926,0.0
54177.0,STARLINK-5186,PAYLOAD,2022-11-09 04:00:00,15.73331211,0.0001303,53.2175,83.9006,44.4505,263.0355,-0.0014237,-0.00196925,0.0,0 STARLINK-5186,1 54177U 22141W   22313.16667824 -.00196925  00000-0 -14237-2 0  9998,2 54177  53.2175  83.9006 0001303  44.4505 263.0355 15.73331211  1938,6727.521,91.526,350.26300000000015,348.51,0.0
54177.0,STARLINK-5186,PAYLOAD,2022-11-09 14:00:01,15.73269055,0.0001658,53.2179,81.8438,36.6827,112.0469,-0.00056676,-0.0007965,0.0,0 STARLINK-5186,1 54177U 22141W   22313.58334491 -.00079650  00000-0 -56676-3 0  9994,2 54177  53.2179  81.8438 0001658  36.6827 112.0469 15.73269055  2005,6727.698,91.529,350.67900000000014,348.4480000000001,0.0
54177.0,STARLINK-5186,PAYLOAD,2022-11-09 22:00:01,15.73228623,0.0001769,53.2175,80.1946,34.5332,203.2301,-0.00073652,-0.00102864,0.0,0 STARLINK-5186,1 54177U 22141W   22313.91668981 -.00102864  00000-0 -73652-3 0  9992,2 54177  53.2175  80.1946 0001769  34.5332 203.2301 15.73228623  1304,6727.814,91.532,350.869,348.48800000000006,0.0
54177.0,STARLINK-5186,PAYLOAD,2022-11-10 14:00:01,15.73234109,0.0001508,53.2176,76.892,41.5431,13.9595,-0.00032176,-0.000456,0.0,0 STARLINK-5186,1 54177U 22141W   22314.58334491 -.00045600  00000-0 -32176-3 0  9992,2 54177  53.2176  76.8920 0001508  41.5431  13.9595 15.73234109  1305,6727.7980000000025,91.531,350.677,348.648,0.0
54177.0,STARLINK-5186,PAYLOAD,2022-11-10 20:00:01,15.73194444,0.0001942,53.218,75.6595,26.787,5.398,0.00077476,0.00109517,0.0,0 STARLINK-5186,1 54177U 22141W   22314.83334491  .00109517  00000-0  77476-3 0  9998,2 54177  53.2180  75.6595 0001942  26.7870   5.3980 15.73194444  2209,6727.911,91.534,351.083,348.469,0.0
54177.0,STARLINK-5186,PAYLOAD,2022-11-10 22:00:00,15.73251943,0.0001852,53.2181,75.2468,27.7277,116.6816,4.8919e-05,6.265e-05,0.0,0 STARLINK-5186,1 54177U 22141W   22314.91667824  .00006265  00000-0  48919-4 0  9993,2 54177  53.2181  75.2468 0001852  27.7277 116.6816 15.73251943  1309,6727.746999999999,91.53,350.858,348.366,0.0
54177.0,STARLINK-5186,PAYLOAD,2022-11-11 06:00:00,15.73237885,0.0001713,53.2184,73.5954,29.102,204.3101,-0.00013012,-0.00018872,0.0,0 STARLINK-5186,1 54177U 22141W   22315.25001157 -.00018872  00000-0 -13012-3 0  9996,2 54177  53.2184  73.5954 0001713  29.1020 204.3101 15.73237885  2268,6727.7869999999975,91.531,350.805,348.5,0.0
54177.0,STARLINK-5186,PAYLOAD,2022-11-11 14:00:01,15.73224928,0.0001987,53.2184,71.9478,27.46,294.9039,-0.00017519,-0.00025162,0.0,0 STARLINK-5186,1 54177U 22141W   22315.58334491 -.00025162  00000-0 -17519-3 0  9998,2 54177  53.2184  71.9478 0001987  27.4600 294.9039 15.73224928  1302,6727.824000000001,91.532,351.026,348.352,0.0
54177.0,STARLINK-5186,PAYLOAD,2022-11-11 22:00:00,15.73215306,0.0002071,53.218,70.2983,24.5963,26.727,0.00018301,0.00025158,0.0,0 STARLINK-5186,1 54177U 22141W   22315.91667824  .00025158  00000-0  18301-3 0  9997,2 54177  53.2180  70.2983 0002071  24.5963  26.7270 15.73215306  1304,6727.852,91.532,351.11,348.3230000000001,0.0
54177.0,STARLINK-5186,PAYLOAD,2022-11-12 06:00:00,15.73205137,0.0001887,53.2181,68.6473,29.5756,110.7143,0.00043149,0.00060388,0.0,0 STARLINK-5186,1 54177U 22141W   22316.25001157  .00060388  00000-0  43149-3 0  9998,2 54177  53.2181  68.6473 0001887  29.5756 110.7143 15.73205137  2427,6727.880999999999,91.533,351.015,348.476,0.0
54177.0,STARLINK-5186,PAYLOAD,2022-11-12 14:00:01,15.73252762,0.0002139,53.2182,66.9999,27.23,202.0119,-0.00040549,-0.00057277,0.0,0 STARLINK-5186,1 54177U 22141W   22316.58334491 -.00057277  00000-0 -40549-3 0  9990,2 54177  53.2182  66.9999 0002139  27.2300 202.0119 15.73252762  2472,6727.745,91.53,351.0490000000001,348.171,0.0
54177.0,STARLINK-5186,PAYLOAD,2022-11-12 22:00:00,15.73252646,0.0002173,53.2184,65.3501,24.0788,294.1224,-0.00081735,-0.00114059,0.0,0 STARLINK-5186,1 54177U 22141W   22316.91667824 -.00114059  00000-0 -81735-3 0  9990,2 54177  53.2184  65.3501 0002173  24.0788 294.1224 15.73252646  1300,6727.745,91.53,351.07199999999995,348.148,0.0
54177.0,STARLINK-5186,PAYLOAD,2022-11-13 14:00:01,15.73107642,0.000249,53.2186,62.0516,30.9571,105.0458,0.00034986,0.00048575,0.0,0 STARLINK-5186,1 54177U 22141W   22317.58334491  .00048575  00000-0  34986-3 0  9998,2 54177  53.2186  62.0516 0002490  30.9571 105.0458 15.73107642  1304,6728.159000000002,91.539,351.699,348.348,0.0
54177.0,STARLINK-5186,PAYLOAD,2022-11-13 20:00:01,15.73140165,0.0002571,53.2183,60.8148,29.6301,82.9946,0.00049171,0.00068784,0.0,0 STARLINK-5186,1 54177U 22141W   22317.83334491  .00068784  00000-0  49171-3 0  9992,2 54177  53.2183  60.8148 0002571  29.6301  82.9946 15.73140165  2677,6728.066,91.537,351.661,348.201,0.0
54177.0,STARLINK-5186,PAYLOAD,2022-11-13 22:00:00,15.73169893,0.0002509,53.2182,60.4019,30.2886,194.5468,0.00019842,0.00027283,0.0,0 STARLINK-5186,1 54177U 22141W   22317.91667824  .00027283  00000-0  19842-3 0  9991,2 54177  53.2182  60.4019 0002509  30.2886 194.5468 15.73169893  1303,6727.981,91.535,351.534,348.158,0.0
54177.0,STARLINK-5186,PAYLOAD,2022-11-14 14:00:01,15.73280573,0.0002555,53.2182,57.1034,28.6671,14.0204,-0.00039934,-0.00056495,0.0,0 STARLINK-5186,1 54177U 22141W   22318.58334491 -.00056495  00000-0 -39934-3 0  9999,2 54177  53.2182  57.1034 0002555  28.6671  14.0204 15.73280573  1300,6727.665,91.528,351.249,347.81199999999984,0.0
